{
  "type": "FeatureCollection",
  "name": "land_use_halo_topology",
  "features": [
    {
      "type": "Feature",
      "id": "LU-001",
      "properties": {
        "id": "LU-001",
        "layer": "LAND_USE",
        "source_type": "agent_generated_design",
        "confidence": "medium",
        "geometry_role": "design_proposal",
        "land_use_code": "0702",
        "name_zh": "南侧居住与配套用地",
        "development_status": "concept_proposed"
      },
      "geometry": {
        "type": "Polygon",
        "coordinates": [
          [
            [
              116.341,
              39.939
            ],
            [
              116.3407,
              39.939
            ],
            [
              116.34039888888888,
              39.94984
            ],
            [
              116.33997777777778,
              39.965
            ],
            [
              116.3407,
              39.965
            ],
            [
              116.341,
              39.965
            ],
            [
              116.341,
              39.94984
            ],
            [
              116.341,
              39.939
            ]
          ]
        ]
      }
    },
    {
      "type": "Feature",
      "id": "LU-002",
      "properties": {
        "id": "LU-002",
        "layer": "LAND_USE",
        "source_type": "agent_generated_design",
        "confidence": "medium",
        "geometry_role": "design_proposal",
        "land_use_code": "0802",
        "name_zh": "AI产业集聚研发用地",
        "development_status": "concept_proposed"
      },
      "geometry": {
        "type": "Polygon",
        "coordinates": [
          [
            [
              116.342,
              39.939
            ],
            [
              116.341,
              39.939
            ],
            [
              116.341,
              39.94984
            ],
            [
              116.341,
              39.965
            ],
            [
              116.342,
              39.965
            ],
            [
              116.342,
              39.94984
            ],
            [
              116.342,
              39.939
            ]
          ]
        ]
      }
    },
    {
      "type": "Feature",
      "id": "LU-003",
      "properties": {
        "id": "LU-003",
        "layer": "LAND_USE",
        "source_type": "agent_generated_design",
        "confidence": "medium",
        "geometry_role": "design_proposal",
        "land_use_code": "0802",
        "name_zh": "AI产业集聚研发用地",
        "development_status": "concept_proposed"
      },
      "geometry": {
        "type": "Polygon",
        "coordinates": [
          [
            [
              116.3553,
              39.939
            ],
            [
              116.351,
              39.939
            ],
            [
              116.348,
              39.939
            ],
            [
              116.348,
              39.94984
            ],
            [
              116.348,
              39.965
            ],
            [
              116.351,
              39.965
            ],
            [
              116.3553,
              39.965
            ],
            [
              116.3553,
              39.94984
            ],
            [
              116.3553,
              39.939
            ]
          ]
        ]
      }
    },
    {
      "type": "Feature",
      "id": "LU-004",
      "properties": {
        "id": "LU-004",
        "layer": "LAND_USE",
        "source_type": "agent_generated_design",
        "confidence": "medium",
        "geometry_role": "design_proposal",
        "land_use_code": "0701",
        "name_zh": "AI原生商业与文化体验用地",
        "development_status": "concept_proposed"
      },
      "geometry": {
        "type": "Polygon",
        "coordinates": [
          [
            [
              116.348,
              39.939
            ],
            [
              116.346,
              39.939
            ],
            [
              116.344,
              39.939
            ],
            [
              116.342,
              39.939
            ],
            [
              116.342,
              39.94984
            ],
            [
              116.342,
              39.965
            ],
            [
              116.344,
              39.965
            ],
            [
              116.346,
              39.965
            ],
            [
              116.348,
              39.965
            ],
            [
              116.348,
              39.94984
            ],
            [
              116.348,
              39.939
            ]
          ]
        ]
      }
    },
    {
      "type": "Feature",
      "id": "LU-005",
      "properties": {
        "id": "LU-005",
        "layer": "LAND_USE",
        "source_type": "agent_generated_design",
        "confidence": "medium",
        "geometry_role": "design_proposal",
        "land_use_code": "0702",
        "name_zh": "西侧居住社区用地",
        "development_status": "concept_proposed"
      },
      "geometry": {
        "type": "Polygon",
        "coordinates": [
          [
            [
              116.3397,
              39.975
            ],
            [
              116.34024838709676,
              39.9835
            ],
            [
              116.3407,
              39.9835
            ],
            [
              116.341,
              39.9835
            ],
            [
              116.341,
              39.975
            ],
            [
              116.342,
              39.975
            ],
            [
              116.342,
              39.965
            ],
            [
              116.341,
              39.965
            ],
            [
              116.3407,
              39.965
            ],
            [
              116.33997777777778,
              39.965
            ],
            [
              116.3397,
              39.975
            ]
          ]
        ]
      }
    },
    {
      "type": "Feature",
      "id": "LU-006",
      "properties": {
        "id": "LU-006",
        "layer": "LAND_USE",
        "source_type": "agent_generated_design",
        "confidence": "medium",
        "geometry_role": "design_proposal",
        "land_use_code": "1401",
        "name_zh": "京张遗址公园绿地",
        "development_status": "concept_proposed"
      },
      "geometry": {
        "type": "Polygon",
        "coordinates": [
          [
            [
              116.342,
              39.975
            ],
            [
              116.344,
              39.975
            ],
            [
              116.346,
              39.975
            ],
            [
              116.348,
              39.975
            ],
            [
              116.348,
              39.965
            ],
            [
              116.346,
              39.965
            ],
            [
              116.344,
              39.965
            ],
            [
              116.342,
              39.965
            ],
            [
              116.342,
              39.975
            ]
          ]
        ]
      }
    },
    {
      "type": "Feature",
      "id": "LU-007",
      "properties": {
        "id": "LU-007",
        "layer": "LAND_USE",
        "source_type": "agent_generated_design",
        "confidence": "medium",
        "geometry_role": "design_proposal",
        "land_use_code": "0702",
        "name_zh": "东侧居住社区用地",
        "development_status": "concept_proposed"
      },
      "geometry": {
        "type": "Polygon",
        "coordinates": [
          [
            [
              116.348,
              39.975
            ],
            [
              116.351,
              39.975
            ],
            [
              116.3545,
              39.975
            ],
            [
              116.3553,
              39.965
            ],
            [
              116.351,
              39.965
            ],
            [
              116.348,
              39.965
            ],
            [
              116.348,
              39.975
            ]
          ]
        ]
      }
    },
    {
      "type": "Feature",
      "id": "LU-008",
      "properties": {
        "id": "LU-008",
        "layer": "LAND_USE",
        "source_type": "agent_generated_design",
        "confidence": "medium",
        "geometry_role": "design_proposal",
        "land_use_code": "0802",
        "name_zh": "AI原点社区创新用地",
        "development_status": "concept_proposed"
      },
      "geometry": {
        "type": "Polygon",
        "coordinates": [
          [
            [
              116.342,
              39.975
            ],
            [
              116.341,
              39.975
            ],
            [
              116.341,
              39.9835
            ],
            [
              116.341,
              39.9935
            ],
            [
              116.341,
              39.99514999999991
            ],
            [
              116.3417,
              40.006
            ],
            [
              116.34177317073171,
              40.0075
            ],
            [
              116.342,
              40.0075
            ],
            [
              116.342,
              39.9935
            ],
            [
              116.342,
              39.9835
            ],
            [
              116.342,
              39.975
            ]
          ]
        ]
      }
    },
    {
      "type": "Feature",
      "id": "LU-009",
      "properties": {
        "id": "LU-009",
        "layer": "LAND_USE",
        "source_type": "agent_generated_design",
        "confidence": "medium",
        "geometry_role": "design_proposal",
        "land_use_code": "0802",
        "name_zh": "AI原点社区创新用地",
        "development_status": "concept_proposed"
      },
      "geometry": {
        "type": "Polygon",
        "coordinates": [
          [
            [
              116.3545,
              39.975
            ],
            [
              116.351,
              39.975
            ],
            [
              116.348,
              39.975
            ],
            [
              116.348,
              39.9835
            ],
            [
              116.348,
              39.9935
            ],
            [
              116.351,
              39.9935
            ],
            [
              116.35349178082193,
              39.9935
            ],
            [
              116.3533,
              39.99
            ],
            [
              116.35382,
              39.9835
            ],
            [
              116.3545,
              39.975
            ]
          ]
        ]
      }
    },
    {
      "type": "Feature",
      "id": "LU-010",
      "properties": {
        "id": "LU-010",
        "layer": "LAND_USE",
        "source_type": "agent_generated_design",
        "confidence": "medium",
        "geometry_role": "design_proposal",
        "land_use_code": "07",
        "name_zh": "AI创新社区公共服务用地",
        "development_status": "concept_proposed"
      },
      "geometry": {
        "type": "Polygon",
        "coordinates": [
          [
            [
              116.348,
              39.975
            ],
            [
              116.346,
              39.975
            ],
            [
              116.344,
              39.975
            ],
            [
              116.342,
              39.975
            ],
            [
              116.342,
              39.9835
            ],
            [
              116.342,
              39.9935
            ],
            [
              116.344,
              39.9935
            ],
            [
              116.346,
              39.9935
            ],
            [
              116.348,
              39.9935
            ],
            [
              116.348,
              39.9835
            ],
            [
              116.348,
              39.975
            ]
          ]
        ]
      }
    },
    {
      "type": "Feature",
      "id": "LU-011",
      "properties": {
        "id": "LU-011",
        "layer": "LAND_USE",
        "source_type": "agent_generated_design",
        "confidence": "medium",
        "geometry_role": "design_proposal",
        "land_use_code": "0803",
        "name_zh": "西侧科研与教育综合用地",
        "development_status": "concept_proposed"
      },
      "geometry": {
        "type": "Polygon",
        "coordinates": [
          [
            [
              116.3407,
              39.9905
            ],
            [
              116.3408935483871,
              39.9935
            ],
            [
              116.341,
              39.99514999999991
            ],
            [
              116.341,
              39.9935
            ],
            [
              116.341,
              39.9835
            ],
            [
              116.3407,
              39.9835
            ],
            [
              116.34024838709676,
              39.9835
            ],
            [
              116.3407,
              39.9905
            ]
          ]
        ]
      }
    },
    {
      "type": "Feature",
      "id": "LU-012",
      "properties": {
        "id": "LU-012",
        "layer": "LAND_USE",
        "source_type": "agent_generated_design",
        "confidence": "medium",
        "geometry_role": "design_proposal",
        "land_use_code": "0803",
        "name_zh": "西侧科研与教育综合用地",
        "development_status": "concept_proposed"
      },
      "geometry": {
        "type": "Polygon",
        "coordinates": [
          [
            [
              116.342,
              40.01214999999997
            ],
            [
              116.342,
              40.0075
            ],
            [
              116.34177317073171,
              40.0075
            ],
            [
              116.342,
              40.01214999999997
            ]
          ]
        ]
      }
    },
    {
      "type": "Feature",
      "id": "LU-013",
      "properties": {
        "id": "LU-013",
        "layer": "LAND_USE",
        "source_type": "agent_generated_design",
        "confidence": "medium",
        "geometry_role": "design_proposal",
        "land_use_code": "0802",
        "name_zh": "AI研发创新与公共平台用地",
        "development_status": "concept_proposed"
      },
      "geometry": {
        "type": "Polygon",
        "coordinates": [
          [
            [
              116.348,
              39.9935
            ],
            [
              116.346,
              39.9935
            ],
            [
              116.344,
              39.9935
            ],
            [
              116.342,
              39.9935
            ],
            [
              116.342,
              40.0075
            ],
            [
              116.342,
              40.01214999999997
            ],
            [
              116.3427,
              40.0265
            ],
            [
              116.344,
              40.0265
            ],
            [
              116.346,
              40.0265
            ],
            [
              116.348,
              40.0265
            ],
            [
              116.348,
              40.0075
            ],
            [
              116.348,
              39.9935
            ]
          ]
        ]
      }
    },
    {
      "type": "Feature",
      "id": "LU-014",
      "properties": {
        "id": "LU-014",
        "layer": "LAND_USE",
        "source_type": "agent_generated_design",
        "confidence": "medium",
        "geometry_role": "design_proposal",
        "land_use_code": "0802",
        "name_zh": "AI全栈研发创新用地",
        "development_status": "concept_proposed"
      },
      "geometry": {
        "type": "Polygon",
        "coordinates": [
          [
            [
              116.35349178082193,
              39.9935
            ],
            [
              116.351,
              39.9935
            ],
            [
              116.348,
              39.9935
            ],
            [
              116.348,
              40.0075
            ],
            [
              116.348,
              40.0265
            ],
            [
              116.351,
              40.0265
            ],
            [
              116.3553,
              40.0265
            ],
            [
              116.35425890410959,
              40.0075
            ],
            [
              116.35349178082193,
              39.9935
            ]
          ]
        ]
      }
    }
  ]
}