{
  "type": "FeatureCollection",
  "name": "roads_halo",
  "features": [
    {
      "type": "Feature",
      "id": "ROAD-NS-1",
      "properties": {
        "id": "ROAD-NS-1",
        "layer": "ROAD_CENTERLINE",
        "source_type": "agent_generated_design",
        "confidence": "medium",
        "geometry_role": "design_proposal",
        "road_type": "secondary",
        "name_zh": "西侧联络道",
        "length_m": 4774.5,
        "alignment_status": "concept_proposed",
        "slow_mobility_lane": "shared",
        "vehicle_access": "limited"
      },
      "geometry": {
        "type": "LineString",
        "coordinates": [
          [
            116.341,
            39.939
          ],
          [
            116.341,
            39.944
          ],
          [
            116.341,
            39.949
          ],
          [
            116.341,
            39.954
          ],
          [
            116.341,
            39.959
          ],
          [
            116.341,
            39.964
          ],
          [
            116.341,
            39.969
          ],
          [
            116.341,
            39.974
          ],
          [
            116.341,
            39.979
          ],
          [
            116.341,
            39.984
          ],
          [
            116.341,
            39.989
          ],
          [
            116.341,
            39.994
          ],
          [
            116.341,
            39.99514999999991
          ]
        ]
      }
    },
    {
      "type": "Feature",
      "id": "ROAD-NS-2",
      "properties": {
        "id": "ROAD-NS-2",
        "layer": "ROAD_CENTERLINE",
        "source_type": "agent_generated_design",
        "confidence": "medium",
        "geometry_role": "design_proposal",
        "road_type": "pedestrian_priority",
        "name_zh": "京张绿廊慢行道",
        "length_m": 7227.6,
        "alignment_status": "concept_proposed",
        "slow_mobility_lane": "exclusive",
        "vehicle_access": "prohibited"
      },
      "geometry": {
        "type": "LineString",
        "coordinates": [
          [
            116.344,
            39.939
          ],
          [
            116.344,
            39.944
          ],
          [
            116.344,
            39.949
          ],
          [
            116.344,
            39.954
          ],
          [
            116.344,
            39.959
          ],
          [
            116.344,
            39.964
          ],
          [
            116.344,
            39.969
          ],
          [
            116.344,
            39.974
          ],
          [
            116.344,
            39.979
          ],
          [
            116.344,
            39.984
          ],
          [
            116.344,
            39.989
          ],
          [
            116.344,
            39.994
          ],
          [
            116.344,
            39.999
          ],
          [
            116.344,
            40.004
          ],
          [
            116.344,
            40.009
          ],
          [
            116.344,
            40.014
          ],
          [
            116.344,
            40.019
          ],
          [
            116.344,
            40.024
          ]
        ]
      }
    },
    {
      "type": "Feature",
      "id": "ROAD-NS-3",
      "properties": {
        "id": "ROAD-NS-3",
        "layer": "ROAD_CENTERLINE",
        "source_type": "agent_generated_design",
        "confidence": "medium",
        "geometry_role": "design_proposal",
        "road_type": "primary",
        "name_zh": "中央智脉大道",
        "length_m": 7227.6,
        "alignment_status": "existing_road",
        "slow_mobility_lane": "parallel",
        "vehicle_access": "restricted"
      },
      "geometry": {
        "type": "LineString",
        "coordinates": [
          [
            116.347,
            39.939
          ],
          [
            116.347,
            39.944
          ],
          [
            116.347,
            39.949
          ],
          [
            116.347,
            39.954
          ],
          [
            116.347,
            39.959
          ],
          [
            116.347,
            39.964
          ],
          [
            116.347,
            39.969
          ],
          [
            116.347,
            39.974
          ],
          [
            116.347,
            39.979
          ],
          [
            116.347,
            39.984
          ],
          [
            116.347,
            39.989
          ],
          [
            116.347,
            39.994
          ],
          [
            116.347,
            39.999
          ],
          [
            116.347,
            40.004
          ],
          [
            116.347,
            40.009
          ],
          [
            116.347,
            40.014
          ],
          [
            116.347,
            40.019
          ],
          [
            116.347,
            40.024
          ]
        ]
      }
    },
    {
      "type": "Feature",
      "id": "ROAD-NS-4",
      "properties": {
        "id": "ROAD-NS-4",
        "layer": "ROAD_CENTERLINE",
        "source_type": "agent_generated_design",
        "confidence": "medium",
        "geometry_role": "design_proposal",
        "road_type": "secondary",
        "name_zh": "东侧服务道",
        "length_m": 7227.6,
        "alignment_status": "concept_proposed",
        "slow_mobility_lane": "shared",
        "vehicle_access": "limited"
      },
      "geometry": {
        "type": "LineString",
        "coordinates": [
          [
            116.35,
            39.939
          ],
          [
            116.35,
            39.944
          ],
          [
            116.35,
            39.949
          ],
          [
            116.35,
            39.954
          ],
          [
            116.35,
            39.959
          ],
          [
            116.35,
            39.964
          ],
          [
            116.35,
            39.969
          ],
          [
            116.35,
            39.974
          ],
          [
            116.35,
            39.979
          ],
          [
            116.35,
            39.984
          ],
          [
            116.35,
            39.989
          ],
          [
            116.35,
            39.994
          ],
          [
            116.35,
            39.999
          ],
          [
            116.35,
            40.004
          ],
          [
            116.35,
            40.009
          ],
          [
            116.35,
            40.014
          ],
          [
            116.35,
            40.019
          ],
          [
            116.35,
            40.024
          ]
        ]
      }
    },
    {
      "type": "Feature",
      "id": "ROAD-NS-5",
      "properties": {
        "id": "ROAD-NS-5",
        "layer": "ROAD_CENTERLINE",
        "source_type": "agent_generated_design",
        "confidence": "medium",
        "geometry_role": "design_proposal",
        "road_type": "primary",
        "name_zh": "学院路辅路",
        "length_m": 7227.6,
        "alignment_status": "existing_road",
        "slow_mobility_lane": "parallel",
        "vehicle_access": "restricted"
      },
      "geometry": {
        "type": "LineString",
        "coordinates": [
          [
            116.353,
            39.939
          ],
          [
            116.353,
            39.944
          ],
          [
            116.353,
            39.949
          ],
          [
            116.353,
            39.954
          ],
          [
            116.353,
            39.959
          ],
          [
            116.353,
            39.964
          ],
          [
            116.353,
            39.969
          ],
          [
            116.353,
            39.974
          ],
          [
            116.353,
            39.979
          ],
          [
            116.353,
            39.984
          ],
          [
            116.353,
            39.989
          ],
          [
            116.353,
            39.994
          ],
          [
            116.353,
            39.999
          ],
          [
            116.353,
            40.004
          ],
          [
            116.353,
            40.009
          ],
          [
            116.353,
            40.014
          ],
          [
            116.353,
            40.019
          ],
          [
            116.353,
            40.024
          ]
        ]
      }
    },
    {
      "type": "Feature",
      "id": "ROAD-EW-1",
      "properties": {
        "id": "ROAD-EW-1",
        "layer": "ROAD_CENTERLINE",
        "source_type": "agent_generated_design",
        "confidence": "medium",
        "geometry_role": "design_proposal",
        "road_type": "secondary",
        "name_zh": "大钟寺南侧路",
        "length_m": 1020.4,
        "alignment_status": "concept_proposed",
        "slow_mobility_lane": "shared",
        "vehicle_access": "limited"
      },
      "geometry": {
        "type": "LineString",
        "coordinates": [
          [
            116.342,
            39.942
          ],
          [
            116.345,
            39.942
          ],
          [
            116.348,
            39.942
          ],
          [
            116.351,
            39.942
          ],
          [
            116.354,
            39.942
          ]
        ]
      }
    },
    {
      "type": "Feature",
      "id": "ROAD-EW-2",
      "properties": {
        "id": "ROAD-EW-2",
        "layer": "ROAD_CENTERLINE",
        "source_type": "agent_generated_design",
        "confidence": "medium",
        "geometry_role": "design_proposal",
        "road_type": "secondary",
        "name_zh": "大钟寺北侧路",
        "length_m": 1020.4,
        "alignment_status": "concept_proposed",
        "slow_mobility_lane": "shared",
        "vehicle_access": "limited"
      },
      "geometry": {
        "type": "LineString",
        "coordinates": [
          [
            116.342,
            39.95
          ],
          [
            116.345,
            39.95
          ],
          [
            116.348,
            39.95
          ],
          [
            116.351,
            39.95
          ],
          [
            116.354,
            39.95
          ]
        ]
      }
    },
    {
      "type": "Feature",
      "id": "ROAD-EW-3",
      "properties": {
        "id": "ROAD-EW-3",
        "layer": "ROAD_CENTERLINE",
        "source_type": "agent_generated_design",
        "confidence": "medium",
        "geometry_role": "design_proposal",
        "road_type": "primary",
        "name_zh": "知春路",
        "length_m": 1020.4,
        "alignment_status": "existing_road",
        "slow_mobility_lane": "parallel",
        "vehicle_access": "restricted"
      },
      "geometry": {
        "type": "LineString",
        "coordinates": [
          [
            116.342,
            39.96
          ],
          [
            116.345,
            39.96
          ],
          [
            116.348,
            39.96
          ],
          [
            116.351,
            39.96
          ],
          [
            116.354,
            39.96
          ]
        ]
      }
    },
    {
      "type": "Feature",
      "id": "ROAD-EW-4",
      "properties": {
        "id": "ROAD-EW-4",
        "layer": "ROAD_CENTERLINE",
        "source_type": "agent_generated_design",
        "confidence": "medium",
        "geometry_role": "design_proposal",
        "road_type": "primary",
        "name_zh": "成府路",
        "length_m": 1020.4,
        "alignment_status": "existing_road",
        "slow_mobility_lane": "parallel",
        "vehicle_access": "restricted"
      },
      "geometry": {
        "type": "LineString",
        "coordinates": [
          [
            116.342,
            39.97
          ],
          [
            116.345,
            39.97
          ],
          [
            116.348,
            39.97
          ],
          [
            116.351,
            39.97
          ],
          [
            116.354,
            39.97
          ]
        ]
      }
    },
    {
      "type": "Feature",
      "id": "ROAD-EW-5",
      "properties": {
        "id": "ROAD-EW-5",
        "layer": "ROAD_CENTERLINE",
        "source_type": "agent_generated_design",
        "confidence": "medium",
        "geometry_role": "design_proposal",
        "road_type": "primary",
        "name_zh": "清华东路",
        "length_m": 1008.5,
        "alignment_status": "existing_road",
        "slow_mobility_lane": "parallel",
        "vehicle_access": "restricted"
      },
      "geometry": {
        "type": "LineString",
        "coordinates": [
          [
            116.342,
            39.983
          ],
          [
            116.345,
            39.983
          ],
          [
            116.348,
            39.983
          ],
          [
            116.351,
            39.983
          ],
          [
            116.35386,
            39.983
          ]
        ]
      }
    },
    {
      "type": "Feature",
      "id": "ROAD-EW-6",
      "properties": {
        "id": "ROAD-EW-6",
        "layer": "ROAD_CENTERLINE",
        "source_type": "agent_generated_design",
        "confidence": "medium",
        "geometry_role": "design_proposal",
        "road_type": "secondary",
        "name_zh": "五道口-学院路",
        "length_m": 765.3,
        "alignment_status": "concept_proposed",
        "slow_mobility_lane": "shared",
        "vehicle_access": "limited"
      },
      "geometry": {
        "type": "LineString",
        "coordinates": [
          [
            116.342,
            39.993
          ],
          [
            116.345,
            39.993
          ],
          [
            116.348,
            39.993
          ],
          [
            116.351,
            39.993
          ]
        ]
      }
    },
    {
      "type": "Feature",
      "id": "ROAD-EW-7",
      "properties": {
        "id": "ROAD-EW-7",
        "layer": "ROAD_CENTERLINE",
        "source_type": "agent_generated_design",
        "confidence": "medium",
        "geometry_role": "design_proposal",
        "road_type": "primary",
        "name_zh": "北五环南路",
        "length_m": 1020.4,
        "alignment_status": "existing_road",
        "slow_mobility_lane": "parallel",
        "vehicle_access": "restricted"
      },
      "geometry": {
        "type": "LineString",
        "coordinates": [
          [
            116.342,
            40.005
          ],
          [
            116.345,
            40.005
          ],
          [
            116.348,
            40.005
          ],
          [
            116.351,
            40.005
          ],
          [
            116.354,
            40.005
          ]
        ]
      }
    },
    {
      "type": "Feature",
      "id": "ROAD-EW-8",
      "properties": {
        "id": "ROAD-EW-8",
        "layer": "ROAD_CENTERLINE",
        "source_type": "agent_generated_design",
        "confidence": "medium",
        "geometry_role": "design_proposal",
        "road_type": "secondary",
        "name_zh": "众智园南界路",
        "length_m": 1008.5,
        "alignment_status": "concept_proposed",
        "slow_mobility_lane": "shared",
        "vehicle_access": "limited"
      },
      "geometry": {
        "type": "LineString",
        "coordinates": [
          [
            116.34213902439025,
            40.015
          ],
          [
            116.345,
            40.015
          ],
          [
            116.348,
            40.015
          ],
          [
            116.351,
            40.015
          ],
          [
            116.354,
            40.015
          ]
        ]
      }
    },
    {
      "type": "Feature",
      "id": "ROAD-EW-9",
      "properties": {
        "id": "ROAD-EW-9",
        "layer": "ROAD_CENTERLINE",
        "source_type": "agent_generated_design",
        "confidence": "medium",
        "geometry_role": "design_proposal",
        "road_type": "primary",
        "name_zh": "北五环辅路",
        "length_m": 765.3,
        "alignment_status": "existing_road",
        "slow_mobility_lane": "parallel",
        "vehicle_access": "restricted"
      },
      "geometry": {
        "type": "LineString",
        "coordinates": [
          [
            116.345,
            40.023
          ],
          [
            116.348,
            40.023
          ],
          [
            116.351,
            40.023
          ],
          [
            116.354,
            40.023
          ]
        ]
      }
    },
    {
      "type": "Feature",
      "geometry": {
        "type": "LineString",
        "coordinates": [
          [
            116.341,
            39.945
          ],
          [
            116.354,
            39.945
          ]
        ]
      },
      "properties": {
        "id": "ROAD-BIKE-1",
        "layer": "ROAD_CENTERLINE",
        "source_type": "agent_generated_design",
        "confidence": "low",
        "geometry_role": "design_proposal",
        "road_type": "bike_lane",
        "name_zh": "南侧自行车道",
        "alignment_status": "concept_proposed",
        "slow_mobility_lane": "exclusive",
        "vehicle_access": "prohibited"
      },
      "id": "ROAD-BIKE-1"
    },
    {
      "type": "Feature",
      "geometry": {
        "type": "LineString",
        "coordinates": [
          [
            116.341,
            39.97
          ],
          [
            116.354,
            39.97
          ]
        ]
      },
      "properties": {
        "id": "ROAD-BIKE-2",
        "layer": "ROAD_CENTERLINE",
        "source_type": "agent_generated_design",
        "confidence": "low",
        "geometry_role": "design_proposal",
        "road_type": "bike_lane",
        "name_zh": "中部自行车道",
        "alignment_status": "concept_proposed",
        "slow_mobility_lane": "exclusive",
        "vehicle_access": "prohibited"
      },
      "id": "ROAD-BIKE-2"
    },
    {
      "type": "Feature",
      "geometry": {
        "type": "LineString",
        "coordinates": [
          [
            116.347,
            39.94
          ],
          [
            116.347,
            40.025
          ]
        ]
      },
      "properties": {
        "id": "ROAD-TRANSIT-1",
        "layer": "ROAD_CENTERLINE",
        "source_type": "agent_generated_design",
        "confidence": "low",
        "geometry_role": "design_proposal",
        "road_type": "transit_corridor",
        "name_zh": "京张公交优先廊道",
        "alignment_status": "concept_proposed",
        "slow_mobility_lane": "parallel",
        "vehicle_access": "transit_priority"
      },
      "id": "ROAD-TRANSIT-1"
    },
    {
      "type": "Feature",
      "geometry": {
        "type": "LineString",
        "coordinates": [
          [
            116.345,
            39.95
          ],
          [
            116.345,
            39.965
          ]
        ]
      },
      "properties": {
        "id": "ROAD-COLL-1",
        "layer": "ROAD_CENTERLINE",
        "source_type": "agent_generated_design",
        "confidence": "low",
        "geometry_role": "design_proposal",
        "road_type": "collector",
        "name_zh": "原点社区集散道",
        "alignment_status": "concept_proposed",
        "slow_mobility_lane": "shared",
        "vehicle_access": "limited"
      },
      "id": "ROAD-COLL-1"
    }
  ]
}